NORAD_CAT_ID,OBJECT_NAME,OBJECT_TYPE,EPOCH,MEAN_MOTION,ECCENTRICITY,INCLINATION,RA_OF_ASC_NODE,ARG_OF_PERICENTER,MEAN_ANOMALY,BSTAR,MEAN_MOTION_DOT,MEAN_MOTION_DDOT,TLE_LINE0,TLE_LINE1,TLE_LINE2,SEMIMAJOR_AXIS,PERIOD,APOGEE,PERIGEE,DECAYED
52677.0,STARLINK-4028,PAYLOAD,2023-03-07 21:29:26,15.08822673,7.33e-05,53.2186,32.3061,92.882,267.2256,0.0025239,0.00040089,0.0,0 STARLINK-4028,1 52677U 22053X   23066.89544721  .00040089  00000-0  25239-2 0  9990,2 52677  53.2186  32.3061 0000733  92.8820 267.2256 15.08822673 45428,6917.933,95.439,540.305,539.291,0.0
52677.0,STARLINK-4028,PAYLOAD,2023-03-08 03:50:58,15.08867908,9.14e-05,53.2179,31.1179,74.5585,285.5508,0.0029515,0.00047035,0.0,0 STARLINK-4028,1 52677U 22053X   23067.16040312  .00047035  00000-0  29515-2 0  9997,2 52677  53.2179  31.1179 0000914  74.5585 285.5508 15.08867908 45055,6917.795,95.436,540.292,539.028,0.0
52677.0,STARLINK-4028,PAYLOAD,2023-03-08 14:58:40,15.08860048,9.84e-05,53.2183,29.0375,88.5626,271.5479,0.0046146,0.00073965,0.0,0 STARLINK-4028,1 52677U 22053X   23067.62408068  .00073965  00000-0  46146-2 0  9994,2 52677  53.2183  29.0375 0000984  88.5626 271.5479 15.08860048 45120,6917.819,95.436,540.365,539.003,0.0
52677.0,STARLINK-4028,PAYLOAD,2023-03-09 03:41:45,15.08862102,0.0001435,53.2188,26.6562,111.334,248.7806,0.0017426,0.00027571,0.0,0 STARLINK-4028,1 52677U 22053X   23068.15399954  .00027571  00000-0  17426-2 0  9997,2 52677  53.2188  26.6562 0001435 111.3340 248.7806 15.08862102 45208,6917.813,95.436,540.671,538.685,0.0
52677.0,STARLINK-4028,PAYLOAD,2023-03-10 03:32:34,15.08826411,0.0001123,53.2191,22.1971,84.4096,275.7024,0.0021018,0.00033308,0.0,0 STARLINK-4028,1 52677U 22053X   23069.14761583  .00033308  00000-0  21018-2 0  9995,2 52677  53.2191  22.1971 0001123  84.4096 275.7024 15.08826411 45350,6917.922,95.438,540.564,539.01,0.0
52677.0,STARLINK-4028,PAYLOAD,2023-03-10 21:01:48,15.08845037,0.0001319,53.2208,18.9253,85.9442,274.1701,0.0010924,0.00017143,0.0,0 STARLINK-4028,1 52677U 22053X   23069.87625946  .00017143  00000-0  10924-2 0  9990,2 52677  53.2208  18.9253 0001319  85.9442 274.1701 15.08845037 45870,6917.865,95.437,540.642,538.818,0.0
52677.0,STARLINK-4028,PAYLOAD,2023-03-11 03:23:20,15.08888754,0.0001285,53.2189,17.739,91.5317,268.5823,0.0027327,0.0004353,0.0,0 STARLINK-4028,1 52677U 22053X   23070.14121242  .00043530  00000-0  27327-2 0  9996,2 52677  53.2189  17.7390 0001285  91.5317 268.5823 15.08888754 45508,6917.731,95.434,540.485,538.707,0.0
52677.0,STARLINK-4028,PAYLOAD,2023-03-11 20:52:34,15.08862858,0.0001419,53.2192,14.468,89.425,270.6904,0.00077691,0.00012106,0.0,0 STARLINK-4028,1 52677U 22053X   23070.86984776  .00012106  00000-0  77691-3 0  9999,2 52677  53.2192  14.4680 0001419  89.4250 270.6904 15.08862858 46028,6917.811,95.436,540.657,538.694,0.0
52677.0,STARLINK-4028,PAYLOAD,2023-03-11 22:27:58,15.08850564,6.99e-05,53.2194,14.1709,32.2432,327.8603,0.00062004,9.597e-05,0.0,0 STARLINK-4028,1 52677U 22053X   23070.93608846  .00009597  00000-0  62004-3 0  9990,2 52677  53.2194  14.1709 0000699  32.2432 327.8603 15.08850564 45623,6917.848,95.437,540.197,539.23,0.0
52677.0,STARLINK-4028,PAYLOAD,2023-03-12 06:24:53,15.08861967,0.0001378,53.2192,12.6845,92.3504,267.7645,0.00047231,7.241e-05,0.0,0 STARLINK-4028,1 52677U 22053X   23071.26728358  .00007241  00000-0  47231-3 0  9997,2 52677  53.2192  12.6845 0001378  92.3504 267.7645 15.08861967 46085,6917.813,95.436,540.632,538.725,0.0
52677.0,STARLINK-4028,PAYLOAD,2023-03-13 04:40:17,15.08840492,0.0001925,53.2181,8.5234,95.8326,264.2886,0.00061235,9.471e-05,0.0,0 STARLINK-4028,1 52677U 22053X   23072.19465068  .00009471  00000-0  61235-3 0  9993,2 52677  53.2181   8.5234 0001925  95.8326 264.2886 15.08840492 45816,6917.879,95.438,541.076,538.412,0.0
52677.0,STARLINK-4028,PAYLOAD,2023-03-13 18:58:46,15.08824192,0.0001025,53.2177,5.8442,105.9795,254.131,0.00035654,5.389e-05,0.0,0 STARLINK-4028,1 52677U 22053X   23072.79081486  .00005389  00000-0  35654-3 0  9997,2 52677  53.2177   5.8442 0001025 105.9795 254.1310 15.08824192 45905,6917.929,95.439,540.503,539.085,0.0
52677.0,STARLINK-4028,PAYLOAD,2023-03-14 04:31:05,15.08847151,0.0001285,53.2174,4.0598,120.424,239.6879,0.0015347,0.00024226,0.0,0 STARLINK-4028,1 52677U 22053X   23073.18825562  .00024226  00000-0  15347-2 0  9999,2 52677  53.2174   4.0598 0001285 120.4240 239.6879 15.08847151 45964,6917.859,95.437,540.612,538.835,0.0
52677.0,STARLINK-4028,PAYLOAD,2023-03-14 12:28:01,15.08850763,0.000123,53.2178,2.5732,105.6496,254.4632,0.0014761,0.00023289,0.0,0 STARLINK-4028,1 52677U 22053X   23073.51945765  .00023289  00000-0  14761-2 0  9991,2 52677  53.2178   2.5732 0001230 105.6496 254.4632 15.08850763 46011,6917.847,95.437,540.563,538.862,0.0
52677.0,STARLINK-4028,PAYLOAD,2023-03-15 02:46:28,15.08885771,0.0001233,53.2181,359.8976,103.8451,256.2678,0.0023009,0.00036567,0.0,0 STARLINK-4028,1 52677U 22053X   23074.11560786  .00036567  00000-0  23009-2 0  9992,2 52677  53.2181 359.8976 0001233 103.8451 256.2678 15.08885771 46104,6917.74,95.435,540.458,538.753,0.0
52677.0,STARLINK-4028,PAYLOAD,2023-03-16 04:12:38,15.08873704,0.0001471,53.2185,355.1388,85.8715,274.2446,0.0016467,0.00026041,0.0,0 STARLINK-4028,1 52677U 22053X   23075.17544246  .00026041  00000-0  16467-2 0  9998,2 52677  53.2185 355.1388 0001471  85.8715 274.2446 15.08873704 46263,6917.777,95.435,540.66,538.625,0.0
52677.0,STARLINK-4028,PAYLOAD,2023-03-16 05:48:01,15.08882647,0.0001409,53.2194,354.843,79.9673,280.1478,0.0018231,0.0002888,0.0,0 STARLINK-4028,1 52677U 22053X   23075.24168013  .00028880  00000-0  18231-2 0  9994,2 52677  53.2194 354.8430 0001409  79.9673 280.1478 15.08882647 46688,6917.75,95.435,540.59,538.64,0.0
52677.0,STARLINK-4028,PAYLOAD,2023-03-17 05:38:49,15.08832161,0.0001197,53.2178,350.3814,98.1801,261.9327,0.0014291,0.00022524,0.0,0 STARLINK-4028,1 52677U 22053X   23076.23529770  .00022524  00000-0  14291-2 0  9996,2 52677  53.2178 350.3814 0001197  98.1801 261.9327 15.08832161 46425,6917.904,95.438,540.597,538.941,0.0
52677.0,STARLINK-4028,PAYLOAD,2023-03-17 18:21:55,15.08842824,0.0001273,53.2186,348.0029,100.5657,259.5479,0.00097369,0.00015243,0.0,0 STARLINK-4028,1 52677U 22053X   23076.76521992  .00015243  00000-0  97369-3 0  9990,2 52677  53.2186 348.0029 0001273 100.5657 259.5479 15.08842824 46505,6917.872,95.437,540.617,538.856,0.0
52677.0,STARLINK-4028,PAYLOAD,2023-03-18 00:43:27,15.08860647,0.0001282,53.2186,346.8141,106.7629,253.3504,0.001284,0.00020217,0.0,0 STARLINK-4028,1 52677U 22053X   23077.03017553  .00020217  00000-0  12840-2 0  9991,2 52677  53.2186 346.8141 0001282 106.7629 253.3504 15.08860647 46541,6917.817,95.436,540.569,538.795,0.0
52677.0,STARLINK-4028,PAYLOAD,2023-03-18 21:23:27,15.08852757,0.0001414,53.2183,342.9481,119.5577,240.5556,0.00077901,0.00012136,0.0,0 STARLINK-4028,1 52677U 22053X   23077.89129411  .00012136  00000-0  77901-3 0  9993,2 52677  53.2183 342.9481 0001414 119.5577 240.5556 15.08852757 47081,6917.841,95.437,540.685,538.728,0.0
52677.0,STARLINK-4028,PAYLOAD,2023-03-19 03:45:00,15.08861172,0.0001292,53.2185,341.7599,103.6363,256.4773,0.00075967,0.0001183,0.0,0 STARLINK-4028,1 52677U 22053X   23078.15625145  .00011830  00000-0  75967-3 0  9998,2 52677  53.2185 341.7599 0001292 103.6363 256.4773 15.08861172 46718,6917.816,95.436,540.574,538.787,0.0
52677.0,STARLINK-4028,PAYLOAD,2023-03-19 10:06:32,15.08849026,9.51e-05,53.2177,340.57,86.857,273.2531,0.00042153,6.429e-05,0.0,0 STARLINK-4028,1 52677U 22053X   23078.42121263  .00006429  00000-0  42153-3 0  9999,2 52677  53.2177 340.5700 0000951  86.8570 273.2531 15.08849026 46750,6917.853,95.437,540.376,539.06,0.0
52677.0,STARLINK-4028,PAYLOAD,2023-03-19 21:14:15,15.08833211,0.0001493,53.2188,338.4891,97.1145,263.0017,0.00037315,5.655e-05,0.0,0 STARLINK-4028,1 52677U 22053X   23078.88489700  .00005655  00000-0  37315-3 0  9996,2 52677  53.2188 338.4891 0001493  97.1145 263.0017 15.08833211 47233,6917.901,95.438,540.799,538.733,0.0
52677.0,STARLINK-4028,PAYLOAD,2023-03-20 03:35:47,15.08847582,0.0001486,53.2191,337.3014,106.1563,253.9593,0.00027554,4.101e-05,0.0,0 STARLINK-4028,1 52677U 22053X   23079.14985328  .00004101  00000-0  27554-3 0  9992,2 52677  53.2191 337.3014 0001486 106.1563 253.9593 15.08847582 46860,6917.857,95.437,540.75,538.694,0.0
52677.0,STARLINK-4028,PAYLOAD,2023-03-20 09:57:20,15.08833375,0.0001258,53.2177,336.1089,93.5804,266.5332,0.00014451,2.012e-05,0.0,0 STARLINK-4028,1 52677U 22053X   23079.41481794  .00002012  00000-0  14451-3 0  9991,2 52677  53.2177 336.1089 0001258  93.5804 266.5332 15.08833375 46908,6917.901,95.438,540.636,538.895,0.0
52677.0,STARLINK-4028,PAYLOAD,2023-03-21 01:51:11,15.08863021,0.0001299,53.2176,333.1352,85.5596,274.5545,0.00090291,0.0001412,0.0,0 STARLINK-4028,1 52677U 22053X   23080.07721216  .00014120  00000-0  90291-3 0  9990,2 52677  53.2176 333.1352 0001299  85.5596 274.5545 15.08863021 47009,6917.81,95.436,540.574,538.776,0.0
52677.0,STARLINK-4028,PAYLOAD,2023-03-22 00:06:35,15.08854275,0.0001322,53.2168,328.9725,83.9571,276.1572,0.00070334,0.00010928,0.0,0 STARLINK-4028,1 52677U 22053X   23081.00457410  .00010928  00000-0  70334-3 0  9994,2 52677  53.2168 328.9725 0001322  83.9571 276.1572 15.08854275 47142,6917.837,95.437,540.616,538.787,0.0
52677.0,STARLINK-4028,PAYLOAD,2023-03-22 20:46:36,15.08842207,0.0001606,53.2164,325.1045,76.9611,283.156,0.00066312,0.00010282,0.0,0 STARLINK-4028,1 52677U 22053X   23081.86569724  .00010282  00000-0  66312-3 0  9994,2 52677  53.2164 325.1045 0001606  76.9611 283.1560 15.08842207 47680,6917.874,95.437,540.85,538.628,0.0
52677.0,STARLINK-4028,PAYLOAD,2023-03-22 22:21:59,15.08843763,0.0001533,53.2165,324.8053,77.9367,282.1797,0.00057734,8.913e-05,0.0,0 STARLINK-4028,1 52677U 22053X   23081.93193618  .00008913  00000-0  57734-3 0  9993,2 52677  53.2165 324.8053 0001533  77.9367 282.1797 15.08843763 47289,6917.869,95.437,540.794,538.673,0.0
